STARLINK-33592          
1 62765U 25015H   26068.97700629  .00033583  00000+0  11402-2 0  9992
2 62765  53.1590 321.2288 0000963 127.7763 232.3325 15.30219635 64395
TEVEL2-2                
1 63219U 25052K   26068.64848259  .00020339  00000+0  69428-3 0  9991
2 63219  97.3987 324.7700 0004693 105.7930 254.3828 15.30343745 54855
